{
  "type": "FeatureCollection",
  "features": [
    {
      "type": "Feature",
      "properties": {
        "norad_id": 30315,
        "name": "FENGYUN 1C DEB",
        "group": "fengyun-1c-debris",
        "lat": -5.51535845607479,
        "lon": 176.94124926347746,
        "alt_km": 857.1258560055667,
        "timestamp": "2025-12-14T07:33:19.753035+00:00",
        "meta_object_name": "FENGYUN 1C DEB",
        "meta_object_id": "1999-025AAC",
        "meta_epoch": "2025-12-13T12:50:22.996896",
        "meta_mean_motion": 14.19066266,
        "meta_eccentricity": 0.00352036,
        "meta_inclination": 98.6017,
        "meta_ra_of_asc_node": 357.0219,
        "meta_arg_of_pericenter": 358.0417,
        "meta_mean_anomaly": 165.8975,
        "meta_ephemeris_type": 0,
        "meta_classification_type": "U",
        "meta_norad_cat_id": 30315,
        "meta_element_set_no": 999,
        "meta_rev_at_epoch": 97718,
        "meta_bstar": 0.00050051034,
        "meta_mean_motion_dot": 1.01e-05,
        "meta_mean_motion_ddot": 0,
        "tle_line1": "1 30315U 99025AAC 25347.53498839  .00001010  00000+0  50051-3 0  9992",
        "tle_line2": "2 30315  98.6017 357.0219 0035203 358.0417 165.8975 14.19066266977187"
      },
      "geometry": {
        "type": "Point",
        "coordinates": [
          176.94124926347746,
          -5.51535845607479
        ]
      }
    },
    {
      "type": "Feature",
      "properties": {
        "norad_id": 30316,
        "name": "FENGYUN 1C DEB",
        "group": "fengyun-1c-debris",
        "lat": 81.22610075234346,
        "lon": 10.37676470279631,
        "alt_km": 683.2905061881111,
        "timestamp": "2025-12-14T07:33:19.753045+00:00",
        "meta_object_name": "FENGYUN 1C DEB",
        "meta_object_id": "1999-025AAD",
        "meta_epoch": "2025-12-13T13:00:42.476256",
        "meta_mean_motion": 14.56090172,
        "meta_eccentricity": 0.00356188,
        "meta_inclination": 98.6475,
        "meta_ra_of_asc_node": 89.9846,
        "meta_arg_of_pericenter": 37.2783,
        "meta_mean_anomaly": 323.0875,
        "meta_ephemeris_type": 0,
        "meta_classification_type": "U",
        "meta_norad_cat_id": 30316,
        "meta_element_set_no": 999,
        "meta_rev_at_epoch": 98348,
        "meta_bstar": 0.0025492003,
        "meta_mean_motion_dot": 0.00011301,
        "meta_mean_motion_ddot": 0,
        "tle_line1": "1 30316U 99025AAD 25347.54215829  .00011301  00000+0  25492-2 0  9994",
        "tle_line2": "2 30316  98.6475  89.9846 0035618  37.2783 323.0875 14.56090172983486"
      },
      "geometry": {
        "type": "Point",
        "coordinates": [
          10.37676470279631,
          81.22610075234346
        ]
      }
    },
    {
      "type": "Feature",
      "properties": {
        "norad_id": 30317,
        "name": "FENGYUN 1C DEB",
        "group": "fengyun-1c-debris",
        "lat": 69.29830526373166,
        "lon": -167.0980834912676,
        "alt_km": 879.8311672501395,
        "timestamp": "2025-12-14T07:33:19.753055+00:00",
        "meta_object_name": "FENGYUN 1C DEB",
        "meta_object_id": "1999-025AAE",
        "meta_epoch": "2025-12-13T12:15:51.056640",
        "meta_mean_motion": 14.06948018,
        "meta_eccentricity": 0.00241171,
        "meta_inclination": 98.7866,
        "meta_ra_of_asc_node": 347.9617,
        "meta_arg_of_pericenter": 274.5229,
        "meta_mean_anomaly": 85.3185,
        "meta_ephemeris_type": 0,
        "meta_classification_type": "U",
        "meta_norad_cat_id": 30317,
        "meta_element_set_no": 999,
        "meta_rev_at_epoch": 97024,
        "meta_bstar": 0.00032901814,
        "meta_mean_motion_dot": 5.07e-06,
        "meta_mean_motion_ddot": 0,
        "tle_line1": "1 30317U 99025AAE 25347.51100760  .00000507  00000+0  32902-3 0  9990",
        "tle_line2": "2 30317  98.7866 347.9617 0024117 274.5229  85.3185 14.06948018970246"
      },
      "geometry": {
        "type": "Point",
        "coordinates": [
          -167.0980834912676,
          69.29830526373166
        ]
      }
    },
    {
      "type": "Feature",
      "properties": {
        "norad_id": 30320,
        "name": "FENGYUN 1C DEB",
        "group": "fengyun-1c-debris",
        "lat": 39.398115903624756,
        "lon": -124.74524181069076,
        "alt_km": 949.4276224266769,
        "timestamp": "2025-12-14T07:33:19.753065+00:00",
        "meta_object_name": "FENGYUN 1C DEB",
        "meta_object_id": "1999-025AAH",
        "meta_epoch": "2025-12-13T03:40:59.134080",
        "meta_mean_motion": 13.98555438,
        "meta_eccentricity": 0.00851384,
        "meta_inclination": 99.1877,
        "meta_ra_of_asc_node": 46.4525,
        "meta_arg_of_pericenter": 293.437,
        "meta_mean_anomaly": 122.9701,
        "meta_ephemeris_type": 0,
        "meta_classification_type": "U",
        "meta_norad_cat_id": 30320,
        "meta_element_set_no": 999,
        "meta_rev_at_epoch": 96413,
        "meta_bstar": 0.00015830726,
        "meta_mean_motion_dot": 1.88e-06,
        "meta_mean_motion_ddot": 0,
        "tle_line1": "1 30320U 99025AAH 25347.15346220  .00000188  00000+0  15831-3 0  9994",
        "tle_line2": "2 30320  99.1877  46.4525 0085138 293.4370 122.9701 13.98555438964136"
      },
      "geometry": {
        "type": "Point",
        "coordinates": [
          -124.74524181069076,
          39.398115903624756
        ]
      }
    },
    {
      "type": "Feature",
      "properties": {
        "norad_id": 30321,
        "name": "FENGYUN 1C DEB",
        "group": "fengyun-1c-debris",
        "lat": -62.812211171231446,
        "lon": 4.559847627190777,
        "alt_km": 824.4910563104049,
        "timestamp": "2025-12-14T07:33:19.753075+00:00",
        "meta_object_name": "FENGYUN 1C DEB",
        "meta_object_id": "1999-025AAJ",
        "meta_epoch": "2025-12-13T12:07:05.304000",
        "meta_mean_motion": 14.16642273,
        "meta_eccentricity": 0.00599629,
        "meta_inclination": 98.6562,
        "meta_ra_of_asc_node": 346.5204,
        "meta_arg_of_pericenter": 234.5692,
        "meta_mean_anomaly": 252.7,
        "meta_ephemeris_type": 0,
        "meta_classification_type": "U",
        "meta_norad_cat_id": 30321,
        "meta_element_set_no": 999,
        "meta_rev_at_epoch": 97554,
        "meta_bstar": 0.00046665177,
        "meta_mean_motion_dot": 9.05e-06,
        "meta_mean_motion_ddot": 0,
        "tle_line1": "1 30321U 99025AAJ 25347.50492250  .00000905  00000+0  46665-3 0  9995",
        "tle_line2": "2 30321  98.6562 346.5204 0059962 234.5692 252.7000 14.16642273975545"
      },
      "geometry": {
        "type": "Point",
        "coordinates": [
          4.559847627190777,
          -62.812211171231446
        ]
      }
    },
    {
      "type": "Feature",
      "properties": {
        "norad_id": 30322,
        "name": "FENGYUN 1C DEB",
        "group": "fengyun-1c-debris",
        "lat": -65.59076003424387,
        "lon": 6.894349308896785,
        "alt_km": 788.0542642680248,
        "timestamp": "2025-12-14T07:33:19.753086+00:00",
        "meta_object_name": "FENGYUN 1C DEB",
        "meta_object_id": "1999-025AAK",
        "meta_epoch": "2025-12-13T13:17:59.261568",
        "meta_mean_motion": 14.06102042,
        "meta_eccentricity": 0.01267483,
        "meta_inclination": 98.3981,
        "meta_ra_of_asc_node": 205.1857,
        "meta_arg_of_pericenter": 250.8087,
        "meta_mean_anomaly": 107.933,
        "meta_ephemeris_type": 0,
        "meta_classification_type": "U",
        "meta_norad_cat_id": 30322,
        "meta_element_set_no": 999,
        "meta_rev_at_epoch": 96211,
        "meta_bstar": 0.0017134926,
        "meta_mean_motion_dot": 2.986e-05,
        "meta_mean_motion_ddot": 0,
        "tle_line1": "1 30322U 99025AAK 25347.55415812  .00002986  00000+0  17135-2 0  9990",
        "tle_line2": "2 30322  98.3981 205.1857 0126748 250.8087 107.9330 14.06102042962118"
      },
      "geometry": {
        "type": "Point",
        "coordinates": [
          6.894349308896785,
          -65.59076003424387
        ]
      }
    },
    {
      "type": "Feature",
      "properties": {
        "norad_id": 30325,
        "name": "FENGYUN 1C DEB",
        "group": "fengyun-1c-debris",
        "lat": -64.55905047367177,
        "lon": 26.46825308244174,
        "alt_km": 861.8452692983183,
        "timestamp": "2025-12-14T07:33:19.753095+00:00",
        "meta_object_name": "FENGYUN 1C DEB",
        "meta_object_id": "1999-025AAL",
        "meta_epoch": "2025-12-12T11:33:35.800704",
        "meta_mean_motion": 14.09104128,
        "meta_eccentricity": 0.00152269,
        "meta_inclination": 98.7331,
        "meta_ra_of_asc_node": 5.8403,
        "meta_arg_of_pericenter": 253.9662,
        "meta_mean_anomaly": 105.9832,
        "meta_ephemeris_type": 0,
        "meta_classification_type": "U",
        "meta_norad_cat_id": 30325,
        "meta_element_set_no": 999,
        "meta_rev_at_epoch": 97012,
        "meta_bstar": 0.00018835229,
        "meta_mean_motion_dot": 2.84e-06,
        "meta_mean_motion_ddot": 0,
        "tle_line1": "1 30325U 99025AAL 25346.48166436  .00000284  00000+0  18835-3 0  9997",
        "tle_line2": "2 30325  98.7331   5.8403 0015226 253.9662 105.9832 14.09104128970122"
      },
      "geometry": {
        "type": "Point",
        "coordinates": [
          26.46825308244174,
          -64.55905047367177
        ]
      }
    }
  ]
}